[{"OBJECT_NAME":"STARLINK-31296","OBJECT_ID":"2024-020D","EPOCH":"2026-03-09T21:13:17.648256","MEAN_MOTION":15.30115201,"ECCENTRICITY":0.00013739,"INCLINATION":53.16,"RA_OF_ASC_NODE":295.7482,"ARG_OF_PERICENTER":95.0661,"MEAN_ANOMALY":265.0496,"EPHEMERIS_TYPE":0,"CLASSIFICATION_TYPE":"U","NORAD_CAT_ID":58879,"ELEMENT_SET_NO":999,"REV_AT_EPOCH":11846,"BSTAR":0.0012468524,"MEAN_MOTION_DOT":0.00036654,"MEAN_MOTION_DDOT":0},{"OBJECT_NAME":"OBJECT B","OBJECT_ID":"2024-203B","EPOCH":"2026-03-09T23:52:52.928256","MEAN_MOTION":15.27506959,"ECCENTRICITY":0.00103904,"INCLINATION":97.4268,"RA_OF_ASC_NODE":139.5887,"ARG_OF_PERICENTER":321.1475,"MEAN_ANOMALY":38.9016,"EPHEMERIS_TYPE":0,"CLASSIFICATION_TYPE":"U","NORAD_CAT_ID":61870,"ELEMENT_SET_NO":999,"REV_AT_EPOCH":7381,"BSTAR":0.00063263842,"MEAN_MOTION_DOT":0.00016997,"MEAN_MOTION_DDOT":0}]
